<?xml version="1.0" encoding="UTF-8"?>
<gpx creator="StravaGPX" version="1.1" xmlns="http://www.topografix.com/GPX/1/1" xmlns:xsi="http://www.w3.org/2001/XMLSchema-instance" xsi:schemaLocation="http://www.topografix.com/GPX/1/1 http://www.topografix.com/GPX/1/1/gpx.xsd">
 <metadata>
  <name>Color Run 10KM</name>
  <author>
   <name>Léa Leclercq </name>
   <link href="https://www.strava.com/athletes/66246711"/>
  </author>
  <copyright author="OpenStreetMap contributors">
   <year>2020</year>
   <license>https://www.openstreetmap.org/copyright</license>
  </copyright>
  <link href="https://www.strava.com/routes/3446966547692167992"/>
 </metadata>
 <trk>
  <name>Color Run 10KM</name>
  <link href="https://www.strava.com/routes/3446966547692167992"/>
  <type>running</type>
  <trkseg>
   <trkpt lat="50.753750000000004" lon="3.2246">
    <ele>35.43</ele>
   </trkpt>
   <trkpt lat="50.75367000000001" lon="3.22474">
    <ele>34.84</ele>
   </trkpt>
   <trkpt lat="50.75356000000001" lon="3.2248500000000004">
    <ele>34.84</ele>
   </trkpt>
   <trkpt lat="50.75293000111037" lon="3.225350006696755">
    <ele>32.89</ele>
   </trkpt>
   <trkpt lat="50.752300000000005" lon="3.2258500000000003">
    <ele>31.39</ele>
   </trkpt>
   <trkpt lat="50.75191000069118" lon="3.2262150029272982">
    <ele>30.45</ele>
   </trkpt>
   <trkpt lat="50.751520000000006" lon="3.2265800000000002">
    <ele>29.540000000000003</ele>
   </trkpt>
   <trkpt lat="50.75141000000001" lon="3.22664">
    <ele>29.44</ele>
   </trkpt>
   <trkpt lat="50.751270000000005" lon="3.2266800000000004">
    <ele>29.380000000000003</ele>
   </trkpt>
   <trkpt lat="50.750490000000006" lon="3.2267500000000005">
    <ele>28.880000000000003</ele>
   </trkpt>
   <trkpt lat="50.75048" lon="3.2267500000000005">
    <ele>28.880000000000003</ele>
   </trkpt>
   <trkpt lat="50.75045000498782" lon="3.225669999329745">
    <ele>29.400000000000002</ele>
   </trkpt>
   <trkpt lat="50.750420000000005" lon="3.22459">
    <ele>30.29</ele>
   </trkpt>
   <trkpt lat="50.75045" lon="3.2238400000000005">
    <ele>30.740000000000002</ele>
   </trkpt>
   <trkpt lat="50.74996" lon="3.2238100000000003">
    <ele>30.18</ele>
   </trkpt>
   <trkpt lat="50.74989" lon="3.22371">
    <ele>30.070000000000004</ele>
   </trkpt>
   <trkpt lat="50.74985" lon="3.2235400000000003">
    <ele>29.970000000000002</ele>
   </trkpt>
   <trkpt lat="50.74982000000001" lon="3.22283">
    <ele>30.6</ele>
   </trkpt>
   <trkpt lat="50.74989" lon="3.2226700000000004">
    <ele>30.810000000000002</ele>
   </trkpt>
   <trkpt lat="50.74987" lon="3.2223200000000003">
    <ele>31.43</ele>
   </trkpt>
   <trkpt lat="50.74925" lon="3.2224000000000004">
    <ele>31.96</ele>
   </trkpt>
   <trkpt lat="50.749230000000004" lon="3.22215">
    <ele>31.96</ele>
   </trkpt>
   <trkpt lat="50.749230000000004" lon="3.22216">
    <ele>31.96</ele>
   </trkpt>
   <trkpt lat="50.74926000000001" lon="3.2219700000000002">
    <ele>32.150000000000006</ele>
   </trkpt>
   <trkpt lat="50.74944000000001" lon="3.22154">
    <ele>32.57</ele>
   </trkpt>
   <trkpt lat="50.74947" lon="3.2213100000000003">
    <ele>32.690000000000005</ele>
   </trkpt>
   <trkpt lat="50.74944000000001" lon="3.22067">
    <ele>33.150000000000006</ele>
   </trkpt>
   <trkpt lat="50.74949" lon="3.2205000000000004">
    <ele>33.260000000000005</ele>
   </trkpt>
   <trkpt lat="50.74962000000001" lon="3.22034">
    <ele>33.35</ele>
   </trkpt>
   <trkpt lat="50.74971000000001" lon="3.2203000000000004">
    <ele>33.35</ele>
   </trkpt>
   <trkpt lat="50.750220000000006" lon="3.2204">
    <ele>33.89</ele>
   </trkpt>
   <trkpt lat="50.75027000000001" lon="3.2202400000000004">
    <ele>34.07</ele>
   </trkpt>
   <trkpt lat="50.75029000000001" lon="3.21985">
    <ele>34.53</ele>
   </trkpt>
   <trkpt lat="50.750285002569086" lon="3.2190750000702133">
    <ele>35.08</ele>
   </trkpt>
   <trkpt lat="50.750280000000004" lon="3.2183">
    <ele>35.26</ele>
   </trkpt>
   <trkpt lat="50.750330000000005" lon="3.2177100000000003">
    <ele>35.26</ele>
   </trkpt>
   <trkpt lat="50.750400000000006" lon="3.2173200000000004">
    <ele>35.36</ele>
   </trkpt>
   <trkpt lat="50.750460000000004" lon="3.21707">
    <ele>35.36</ele>
   </trkpt>
   <trkpt lat="50.75068" lon="3.21639">
    <ele>35.69</ele>
   </trkpt>
   <trkpt lat="50.75052" lon="3.21627">
    <ele>35.88</ele>
   </trkpt>
   <trkpt lat="50.75086" lon="3.2157500000000003">
    <ele>35.84</ele>
   </trkpt>
   <trkpt lat="50.75101" lon="3.21538">
    <ele>35.84</ele>
   </trkpt>
   <trkpt lat="50.751090000000005" lon="3.2153">
    <ele>35.870000000000005</ele>
   </trkpt>
   <trkpt lat="50.75112000000001" lon="3.2153">
    <ele>35.870000000000005</ele>
   </trkpt>
   <trkpt lat="50.75115" lon="3.2151500000000004">
    <ele>35.83</ele>
   </trkpt>
   <trkpt lat="50.751380000000005" lon="3.21457">
    <ele>36.410000000000004</ele>
   </trkpt>
   <trkpt lat="50.751400000000004" lon="3.2144600000000003">
    <ele>36.410000000000004</ele>
   </trkpt>
   <trkpt lat="50.75139" lon="3.2143200000000003">
    <ele>36.43000000000001</ele>
   </trkpt>
   <trkpt lat="50.75142" lon="3.21416">
    <ele>36.6</ele>
   </trkpt>
   <trkpt lat="50.751580000000004" lon="3.2136400000000003">
    <ele>37.22</ele>
   </trkpt>
   <trkpt lat="50.751630000000006" lon="3.2133900000000004">
    <ele>37.17</ele>
   </trkpt>
   <trkpt lat="50.751870000000004" lon="3.2126300000000003">
    <ele>37.61000000000001</ele>
   </trkpt>
   <trkpt lat="50.75195" lon="3.2121700000000004">
    <ele>37.78</ele>
   </trkpt>
   <trkpt lat="50.751990000000006" lon="3.21212">
    <ele>37.78</ele>
   </trkpt>
   <trkpt lat="50.752030000000005" lon="3.21213">
    <ele>37.78</ele>
   </trkpt>
   <trkpt lat="50.75209" lon="3.2121800000000005">
    <ele>37.83</ele>
   </trkpt>
   <trkpt lat="50.752140000000004" lon="3.21219">
    <ele>37.83</ele>
   </trkpt>
   <trkpt lat="50.7522" lon="3.2121500000000003">
    <ele>37.89</ele>
   </trkpt>
   <trkpt lat="50.752430000000004" lon="3.2118">
    <ele>38.23</ele>
   </trkpt>
   <trkpt lat="50.75251" lon="3.21164">
    <ele>38.57</ele>
   </trkpt>
   <trkpt lat="50.752590000000005" lon="3.2115600000000004">
    <ele>38.57</ele>
   </trkpt>
   <trkpt lat="50.75267" lon="3.21152">
    <ele>38.75</ele>
   </trkpt>
   <trkpt lat="50.75296" lon="3.2111600000000005">
    <ele>38.98</ele>
   </trkpt>
   <trkpt lat="50.75329000000001" lon="3.21071">
    <ele>39.45</ele>
   </trkpt>
   <trkpt lat="50.75336" lon="3.21051">
    <ele>39.66</ele>
   </trkpt>
   <trkpt lat="50.75334" lon="3.2103200000000003">
    <ele>39.92</ele>
   </trkpt>
   <trkpt lat="50.75339" lon="3.21017">
    <ele>40.440000000000005</ele>
   </trkpt>
   <trkpt lat="50.7533" lon="3.20988">
    <ele>40.440000000000005</ele>
   </trkpt>
   <trkpt lat="50.75311000000001" lon="3.20941">
    <ele>41.300000000000004</ele>
   </trkpt>
   <trkpt lat="50.7531" lon="3.2093000000000003">
    <ele>41.54</ele>
   </trkpt>
   <trkpt lat="50.75332" lon="3.2087600000000003">
    <ele>41.63</ele>
   </trkpt>
   <trkpt lat="50.753310000000006" lon="3.2087700000000003">
    <ele>41.63</ele>
   </trkpt>
   <trkpt lat="50.753490000000006" lon="3.20847">
    <ele>41.78</ele>
   </trkpt>
   <trkpt lat="50.75379" lon="3.20814">
    <ele>42.39</ele>
   </trkpt>
   <trkpt lat="50.75413" lon="3.2078400000000005">
    <ele>43.58</ele>
   </trkpt>
   <trkpt lat="50.75426" lon="3.2077000000000004">
    <ele>43.690000000000005</ele>
   </trkpt>
   <trkpt lat="50.754665000627405" lon="3.2073050034566357">
    <ele>44.09</ele>
   </trkpt>
   <trkpt lat="50.75507" lon="3.20691">
    <ele>44.29</ele>
   </trkpt>
   <trkpt lat="50.75576" lon="3.2061900000000003">
    <ele>44.68000000000001</ele>
   </trkpt>
   <trkpt lat="50.75583" lon="3.2061800000000003">
    <ele>44.620000000000005</ele>
   </trkpt>
   <trkpt lat="50.75589" lon="3.2062100000000004">
    <ele>44.620000000000005</ele>
   </trkpt>
   <trkpt lat="50.755930000000006" lon="3.20631">
    <ele>44.620000000000005</ele>
   </trkpt>
   <trkpt lat="50.756040000000006" lon="3.2073300000000002">
    <ele>43.33</ele>
   </trkpt>
   <trkpt lat="50.75607" lon="3.20744">
    <ele>43.17000000000001</ele>
   </trkpt>
   <trkpt lat="50.756150000000005" lon="3.2075700000000005">
    <ele>43.06</ele>
   </trkpt>
   <trkpt lat="50.756280000000004" lon="3.2076900000000004">
    <ele>43.0</ele>
   </trkpt>
   <trkpt lat="50.75648" lon="3.2077400000000003">
    <ele>42.92000000000001</ele>
   </trkpt>
   <trkpt lat="50.756550000000004" lon="3.2076700000000002">
    <ele>42.92000000000001</ele>
   </trkpt>
   <trkpt lat="50.75665000000001" lon="3.2076100000000003">
    <ele>43.050000000000004</ele>
   </trkpt>
   <trkpt lat="50.75685000000001" lon="3.20753">
    <ele>43.160000000000004</ele>
   </trkpt>
   <trkpt lat="50.75699" lon="3.20751">
    <ele>43.160000000000004</ele>
   </trkpt>
   <trkpt lat="50.75770000000001" lon="3.20753">
    <ele>44.26</ele>
   </trkpt>
   <trkpt lat="50.757920000000006" lon="3.2075500000000003">
    <ele>44.6</ele>
   </trkpt>
   <trkpt lat="50.75799000000001" lon="3.2076300000000004">
    <ele>44.99</ele>
   </trkpt>
   <trkpt lat="50.758390000000006" lon="3.2083700000000004">
    <ele>46.43000000000001</ele>
   </trkpt>
   <trkpt lat="50.75795500158344" lon="3.2089650054350463">
    <ele>46.93000000000001</ele>
   </trkpt>
   <trkpt lat="50.75752000000001" lon="3.20956">
    <ele>46.39</ele>
   </trkpt>
   <trkpt lat="50.75709000158773" lon="3.2101750056925624">
    <ele>45.660000000000004</ele>
   </trkpt>
   <trkpt lat="50.756660000000004" lon="3.2107900000000003">
    <ele>45.94</ele>
   </trkpt>
   <trkpt lat="50.756420000000006" lon="3.21146">
    <ele>46.290000000000006</ele>
   </trkpt>
   <trkpt lat="50.756330000000005" lon="3.21185">
    <ele>46.57000000000001</ele>
   </trkpt>
   <trkpt lat="50.756310000000006" lon="3.2120800000000003">
    <ele>46.790000000000006</ele>
   </trkpt>
   <trkpt lat="50.75634" lon="3.2123500000000003">
    <ele>47.43000000000001</ele>
   </trkpt>
   <trkpt lat="50.75645" lon="3.2125000000000004">
    <ele>48.190000000000005</ele>
   </trkpt>
   <trkpt lat="50.75674" lon="3.2130500000000004">
    <ele>51.330000000000005</ele>
   </trkpt>
   <trkpt lat="50.756980000000006" lon="3.2136700000000005">
    <ele>55.89</ele>
   </trkpt>
   <trkpt lat="50.75740500078461" lon="3.2132800034184057">
    <ele>57.06</ele>
   </trkpt>
   <trkpt lat="50.757830000000006" lon="3.2128900000000002">
    <ele>58.5</ele>
   </trkpt>
   <trkpt lat="50.75788000000001" lon="3.21288">
    <ele>58.5</ele>
   </trkpt>
   <trkpt lat="50.75856" lon="3.2123500000000003">
    <ele>60.76</ele>
   </trkpt>
   <trkpt lat="50.758810001782244" lon="3.2129849967557815">
    <ele>61.39000000000001</ele>
   </trkpt>
   <trkpt lat="50.759060000000005" lon="3.21362">
    <ele>61.08</ele>
   </trkpt>
   <trkpt lat="50.75907" lon="3.2136000000000005">
    <ele>61.08</ele>
   </trkpt>
   <trkpt lat="50.759150000000005" lon="3.2138400000000003">
    <ele>60.75000000000001</ele>
   </trkpt>
   <trkpt lat="50.758755000791936" lon="3.2142800037537125">
    <ele>58.64</ele>
   </trkpt>
   <trkpt lat="50.75836" lon="3.2147200000000002">
    <ele>57.260000000000005</ele>
   </trkpt>
   <trkpt lat="50.75829" lon="3.21485">
    <ele>56.730000000000004</ele>
   </trkpt>
   <trkpt lat="50.75831" lon="3.21498">
    <ele>56.730000000000004</ele>
   </trkpt>
   <trkpt lat="50.758500000000005" lon="3.21558">
    <ele>55.50000000000001</ele>
   </trkpt>
   <trkpt lat="50.75853000000001" lon="3.2156300000000004">
    <ele>55.50000000000001</ele>
   </trkpt>
   <trkpt lat="50.758590000000005" lon="3.21564">
    <ele>55.50000000000001</ele>
   </trkpt>
   <trkpt lat="50.75873000000001" lon="3.2155600000000004">
    <ele>55.27</ele>
   </trkpt>
   <trkpt lat="50.75882000000001" lon="3.2156000000000002">
    <ele>55.010000000000005</ele>
   </trkpt>
   <trkpt lat="50.759220000000006" lon="3.21666">
    <ele>53.7</ele>
   </trkpt>
   <trkpt lat="50.75909000000001" lon="3.2167600000000003">
    <ele>53.34</ele>
   </trkpt>
   <trkpt lat="50.758810000000004" lon="3.21693">
    <ele>52.07000000000001</ele>
   </trkpt>
   <trkpt lat="50.758700000000005" lon="3.2170400000000003">
    <ele>51.440000000000005</ele>
   </trkpt>
   <trkpt lat="50.75864000000001" lon="3.2171700000000003">
    <ele>51.22</ele>
   </trkpt>
   <trkpt lat="50.7586" lon="3.2173700000000003">
    <ele>51.06</ele>
   </trkpt>
   <trkpt lat="50.758390000000006" lon="3.2173100000000003">
    <ele>51.2</ele>
   </trkpt>
   <trkpt lat="50.75822" lon="3.2173200000000004">
    <ele>51.56</ele>
   </trkpt>
   <trkpt lat="50.75808000000001" lon="3.21735">
    <ele>51.72</ele>
   </trkpt>
   <trkpt lat="50.75789" lon="3.2174400000000003">
    <ele>51.980000000000004</ele>
   </trkpt>
   <trkpt lat="50.757180000000005" lon="3.2179">
    <ele>52.64000000000001</ele>
   </trkpt>
   <trkpt lat="50.756600000000006" lon="3.21816">
    <ele>53.300000000000004</ele>
   </trkpt>
   <trkpt lat="50.75636" lon="3.21822">
    <ele>53.43000000000001</ele>
   </trkpt>
   <trkpt lat="50.756703346756275" lon="3.219473314910253">
    <ele>49.95</ele>
   </trkpt>
   <trkpt lat="50.75704668008038" lon="3.2207266482095274">
    <ele>46.99</ele>
   </trkpt>
   <trkpt lat="50.75739" lon="3.2219800000000003">
    <ele>44.15</ele>
   </trkpt>
   <trkpt lat="50.75735" lon="3.2219900000000004">
    <ele>44.15</ele>
   </trkpt>
   <trkpt lat="50.757360000000006" lon="3.2220500000000003">
    <ele>43.940000000000005</ele>
   </trkpt>
   <trkpt lat="50.757310000000004" lon="3.2220700000000004">
    <ele>43.940000000000005</ele>
   </trkpt>
   <trkpt lat="50.75733" lon="3.2222600000000003">
    <ele>43.980000000000004</ele>
   </trkpt>
   <trkpt lat="50.75739" lon="3.2222800000000005">
    <ele>43.980000000000004</ele>
   </trkpt>
   <trkpt lat="50.75743000000001" lon="3.2223300000000004">
    <ele>43.980000000000004</ele>
   </trkpt>
   <trkpt lat="50.75748" lon="3.2223">
    <ele>43.980000000000004</ele>
   </trkpt>
   <trkpt lat="50.757825006400054" lon="3.2235299906889705">
    <ele>41.82</ele>
   </trkpt>
   <trkpt lat="50.75817000000001" lon="3.2247600000000003">
    <ele>40.120000000000005</ele>
   </trkpt>
   <trkpt lat="50.758160000000004" lon="3.2248400000000004">
    <ele>40.120000000000005</ele>
   </trkpt>
   <trkpt lat="50.75831" lon="3.2251000000000003">
    <ele>39.28</ele>
   </trkpt>
   <trkpt lat="50.758320000000005" lon="3.22513">
    <ele>39.28</ele>
   </trkpt>
   <trkpt lat="50.75827" lon="3.22515">
    <ele>38.73</ele>
   </trkpt>
   <trkpt lat="50.75831" lon="3.22535">
    <ele>38.25000000000001</ele>
   </trkpt>
   <trkpt lat="50.75836" lon="3.2253200000000004">
    <ele>38.49</ele>
   </trkpt>
   <trkpt lat="50.758390000000006" lon="3.2254400000000003">
    <ele>38.68000000000001</ele>
   </trkpt>
   <trkpt lat="50.75838" lon="3.2255000000000003">
    <ele>38.68000000000001</ele>
   </trkpt>
   <trkpt lat="50.75844000000001" lon="3.22575">
    <ele>38.690000000000005</ele>
   </trkpt>
   <trkpt lat="50.759003334346765" lon="3.225400008447535">
    <ele>38.21</ele>
   </trkpt>
   <trkpt lat="50.75956666764607" lon="3.2250500084688087">
    <ele>37.82000000000001</ele>
   </trkpt>
   <trkpt lat="50.760130000000004" lon="3.2247000000000003">
    <ele>37.63</ele>
   </trkpt>
   <trkpt lat="50.760740000000006" lon="3.22441">
    <ele>39.43</ele>
   </trkpt>
   <trkpt lat="50.7610950070593" lon="3.225694990250255">
    <ele>40.63</ele>
   </trkpt>
   <trkpt lat="50.76145" lon="3.22698">
    <ele>41.470000000000006</ele>
   </trkpt>
   <trkpt lat="50.761700000000005" lon="3.2276800000000003">
    <ele>41.480000000000004</ele>
   </trkpt>
   <trkpt lat="50.7618" lon="3.2278200000000004">
    <ele>41.480000000000004</ele>
   </trkpt>
   <trkpt lat="50.76189" lon="3.22779">
    <ele>41.480000000000004</ele>
   </trkpt>
   <trkpt lat="50.76270000144898" lon="3.227215009928585">
    <ele>41.400000000000006</ele>
   </trkpt>
   <trkpt lat="50.763510000000004" lon="3.22664">
    <ele>43.21000000000001</ele>
   </trkpt>
   <trkpt lat="50.76375" lon="3.2274800000000003">
    <ele>44.09</ele>
   </trkpt>
   <trkpt lat="50.76391" lon="3.22819">
    <ele>45.970000000000006</ele>
   </trkpt>
   <trkpt lat="50.763980000000004" lon="3.2283100000000005">
    <ele>46.44</ele>
   </trkpt>
   <trkpt lat="50.76388000000001" lon="3.2285000000000004">
    <ele>46.690000000000005</ele>
   </trkpt>
   <trkpt lat="50.76381000000001" lon="3.22854">
    <ele>46.690000000000005</ele>
   </trkpt>
   <trkpt lat="50.763740000000006" lon="3.22866">
    <ele>47.21</ele>
   </trkpt>
   <trkpt lat="50.76344" lon="3.2298000000000004">
    <ele>49.010000000000005</ele>
   </trkpt>
   <trkpt lat="50.763180000000006" lon="3.23042">
    <ele>49.74</ele>
   </trkpt>
   <trkpt lat="50.76301" lon="3.23076">
    <ele>49.61</ele>
   </trkpt>
   <trkpt lat="50.762420000000006" lon="3.2318100000000003">
    <ele>47.550000000000004</ele>
   </trkpt>
   <trkpt lat="50.762040000000006" lon="3.23261">
    <ele>45.22</ele>
   </trkpt>
   <trkpt lat="50.761540000000004" lon="3.23348">
    <ele>42.95</ele>
   </trkpt>
   <trkpt lat="50.761250001393925" lon="3.2340400033678716">
    <ele>41.88</ele>
   </trkpt>
   <trkpt lat="50.760960000000004" lon="3.2346000000000004">
    <ele>41.88</ele>
   </trkpt>
   <trkpt lat="50.76064" lon="3.2351300000000003">
    <ele>41.25</ele>
   </trkpt>
   <trkpt lat="50.76044" lon="3.2354200000000004">
    <ele>40.93</ele>
   </trkpt>
   <trkpt lat="50.75977" lon="3.23626">
    <ele>39.650000000000006</ele>
   </trkpt>
   <trkpt lat="50.75943000127295" lon="3.2368050039548173">
    <ele>38.52</ele>
   </trkpt>
   <trkpt lat="50.75909000000001" lon="3.23735">
    <ele>37.93000000000001</ele>
   </trkpt>
   <trkpt lat="50.758743338981525" lon="3.2381633454028327">
    <ele>38.080000000000005</ele>
   </trkpt>
   <trkpt lat="50.75839667230641" lon="3.238976678755786">
    <ele>39.290000000000006</ele>
   </trkpt>
   <trkpt lat="50.758050000000004" lon="3.23979">
    <ele>40.07</ele>
   </trkpt>
   <trkpt lat="50.758010000000006" lon="3.2399400000000003">
    <ele>39.980000000000004</ele>
   </trkpt>
   <trkpt lat="50.75744" lon="3.24013">
    <ele>41.63</ele>
   </trkpt>
   <trkpt lat="50.75668" lon="3.24053">
    <ele>44.07000000000001</ele>
   </trkpt>
   <trkpt lat="50.75661" lon="3.2404900000000003">
    <ele>44.07000000000001</ele>
   </trkpt>
   <trkpt lat="50.75648" lon="3.24046">
    <ele>44.84</ele>
   </trkpt>
   <trkpt lat="50.756350000000005" lon="3.2404">
    <ele>45.14000000000001</ele>
   </trkpt>
   <trkpt lat="50.756240000000005" lon="3.2403800000000005">
    <ele>45.58</ele>
   </trkpt>
   <trkpt lat="50.756040000000006" lon="3.2404300000000004">
    <ele>45.77</ele>
   </trkpt>
   <trkpt lat="50.755930000000006" lon="3.2404300000000004">
    <ele>46.11000000000001</ele>
   </trkpt>
   <trkpt lat="50.755220000263535" lon="3.2406166723390437">
    <ele>46.81</ele>
   </trkpt>
   <trkpt lat="50.754510000229104" lon="3.2408033390146573">
    <ele>45.27</ele>
   </trkpt>
   <trkpt lat="50.753800000000005" lon="3.2409900000000005">
    <ele>43.07</ele>
   </trkpt>
   <trkpt lat="50.75365000000001" lon="3.24101">
    <ele>43.07</ele>
   </trkpt>
   <trkpt lat="50.752810000000004" lon="3.2412400000000003">
    <ele>40.150000000000006</ele>
   </trkpt>
   <trkpt lat="50.752680000000005" lon="3.2412900000000002">
    <ele>40.150000000000006</ele>
   </trkpt>
   <trkpt lat="50.752610000000004" lon="3.2412900000000002">
    <ele>39.23</ele>
   </trkpt>
   <trkpt lat="50.751870000000004" lon="3.2415000000000003">
    <ele>37.69</ele>
   </trkpt>
   <trkpt lat="50.75133499996921" lon="3.241645001689932">
    <ele>37.17</ele>
   </trkpt>
   <trkpt lat="50.750800000000005" lon="3.2417900000000004">
    <ele>36.67</ele>
   </trkpt>
   <trkpt lat="50.75059" lon="3.24182">
    <ele>35.550000000000004</ele>
   </trkpt>
   <trkpt lat="50.75038000000001" lon="3.24181">
    <ele>35.550000000000004</ele>
   </trkpt>
   <trkpt lat="50.75012" lon="3.2417100000000003">
    <ele>34.39</ele>
   </trkpt>
   <trkpt lat="50.74945333459527" lon="3.2413266557517417">
    <ele>33.1</ele>
   </trkpt>
   <trkpt lat="50.7487866679339" lon="3.240943322421651">
    <ele>31.35</ele>
   </trkpt>
   <trkpt lat="50.74812000000001" lon="3.2405600000000003">
    <ele>28.720000000000002</ele>
   </trkpt>
   <trkpt lat="50.7479" lon="3.2405000000000004">
    <ele>28.720000000000002</ele>
   </trkpt>
   <trkpt lat="50.74775" lon="3.2404800000000002">
    <ele>28.720000000000002</ele>
   </trkpt>
   <trkpt lat="50.747260000000004" lon="3.24053">
    <ele>26.37</ele>
   </trkpt>
   <trkpt lat="50.74719" lon="3.2405000000000004">
    <ele>26.220000000000002</ele>
   </trkpt>
   <trkpt lat="50.74714" lon="3.24059">
    <ele>25.95</ele>
   </trkpt>
   <trkpt lat="50.747080000000004" lon="3.24053">
    <ele>25.79</ele>
   </trkpt>
   <trkpt lat="50.747080000000004" lon="3.2404">
    <ele>25.79</ele>
   </trkpt>
   <trkpt lat="50.74703" lon="3.2402200000000003">
    <ele>25.85</ele>
   </trkpt>
   <trkpt lat="50.74701" lon="3.2400800000000003">
    <ele>25.990000000000002</ele>
   </trkpt>
   <trkpt lat="50.74714002514612" lon="3.238680011615135">
    <ele>26.250000000000004</ele>
   </trkpt>
   <trkpt lat="50.74727003353124" lon="3.23728001545442">
    <ele>26.750000000000004</ele>
   </trkpt>
   <trkpt lat="50.747400025155166" lon="3.235880011518779">
    <ele>26.400000000000002</ele>
   </trkpt>
   <trkpt lat="50.747530000000005" lon="3.2344800000000005">
    <ele>26.21</ele>
   </trkpt>
   <trkpt lat="50.747640000000004" lon="3.2341200000000003">
    <ele>26.21</ele>
   </trkpt>
   <trkpt lat="50.7477" lon="3.2340700000000004">
    <ele>26.160000000000004</ele>
   </trkpt>
   <trkpt lat="50.747780000000006" lon="3.23408">
    <ele>26.160000000000004</ele>
   </trkpt>
   <trkpt lat="50.74794000000001" lon="3.23416">
    <ele>26.03</ele>
   </trkpt>
   <trkpt lat="50.748433335925505" lon="3.2347166548692914">
    <ele>26.46</ele>
   </trkpt>
   <trkpt lat="50.74892666920112" lon="3.2352733214706633">
    <ele>27.560000000000002</ele>
   </trkpt>
   <trkpt lat="50.74942" lon="3.2358300000000004">
    <ele>28.830000000000002</ele>
   </trkpt>
   <trkpt lat="50.74993500112355" lon="3.236334994476851">
    <ele>30.520000000000003</ele>
   </trkpt>
   <trkpt lat="50.75045" lon="3.2368400000000004">
    <ele>32.330000000000005</ele>
   </trkpt>
   <trkpt lat="50.75097" lon="3.2373200000000004">
    <ele>33.34</ele>
   </trkpt>
   <trkpt lat="50.75128500227992" lon="3.236580005124008">
    <ele>35.89000000000001</ele>
   </trkpt>
   <trkpt lat="50.7516" lon="3.23584">
    <ele>36.730000000000004</ele>
   </trkpt>
   <trkpt lat="50.751630000000006" lon="3.2356700000000003">
    <ele>36.78</ele>
   </trkpt>
   <trkpt lat="50.75159000000001" lon="3.23545">
    <ele>36.59</ele>
   </trkpt>
   <trkpt lat="50.75144" lon="3.2351300000000003">
    <ele>36.25000000000001</ele>
   </trkpt>
   <trkpt lat="50.751450000000006" lon="3.2348600000000003">
    <ele>35.93</ele>
   </trkpt>
   <trkpt lat="50.751310000000004" lon="3.2344500000000003">
    <ele>34.95</ele>
   </trkpt>
   <trkpt lat="50.75124" lon="3.2340600000000004">
    <ele>33.57</ele>
   </trkpt>
   <trkpt lat="50.75121000000001" lon="3.2340000000000004">
    <ele>33.57</ele>
   </trkpt>
   <trkpt lat="50.751070000000006" lon="3.2339200000000003">
    <ele>33.160000000000004</ele>
   </trkpt>
   <trkpt lat="50.751020000000004" lon="3.2338400000000003">
    <ele>33.160000000000004</ele>
   </trkpt>
   <trkpt lat="50.750980000000006" lon="3.2337100000000003">
    <ele>32.43</ele>
   </trkpt>
   <trkpt lat="50.75085000000001" lon="3.23327">
    <ele>31.53</ele>
   </trkpt>
   <trkpt lat="50.75072" lon="3.23246">
    <ele>28.330000000000002</ele>
   </trkpt>
   <trkpt lat="50.750620000000005" lon="3.2322400000000004">
    <ele>28.060000000000002</ele>
   </trkpt>
   <trkpt lat="50.750315001257476" lon="3.231669996040084">
    <ele>26.860000000000003</ele>
   </trkpt>
   <trkpt lat="50.75001" lon="3.2311">
    <ele>26.61</ele>
   </trkpt>
   <trkpt lat="50.75034" lon="3.2305300000000003">
    <ele>26.770000000000003</ele>
   </trkpt>
   <trkpt lat="50.750440000000005" lon="3.23017">
    <ele>26.98</ele>
   </trkpt>
   <trkpt lat="50.75054" lon="3.2299700000000002">
    <ele>26.98</ele>
   </trkpt>
   <trkpt lat="50.750710000000005" lon="3.22988">
    <ele>27.22</ele>
   </trkpt>
   <trkpt lat="50.7512100000688" lon="3.229700001947751">
    <ele>27.42</ele>
   </trkpt>
   <trkpt lat="50.75171" lon="3.2295200000000004">
    <ele>27.630000000000003</ele>
   </trkpt>
   <trkpt lat="50.7518" lon="3.2294500000000004">
    <ele>27.770000000000003</ele>
   </trkpt>
   <trkpt lat="50.7518" lon="3.22934">
    <ele>27.770000000000003</ele>
   </trkpt>
   <trkpt lat="50.75184" lon="3.2293000000000003">
    <ele>27.770000000000003</ele>
   </trkpt>
   <trkpt lat="50.751830000000005" lon="3.2292300000000003">
    <ele>27.770000000000003</ele>
   </trkpt>
   <trkpt lat="50.75188000000001" lon="3.2288200000000002">
    <ele>27.900000000000002</ele>
   </trkpt>
   <trkpt lat="50.751830000000005" lon="3.2284100000000002">
    <ele>27.96</ele>
   </trkpt>
   <trkpt lat="50.75170000000001" lon="3.22771">
    <ele>28.39</ele>
   </trkpt>
   <trkpt lat="50.75141000000001" lon="3.22664">
    <ele>29.44</ele>
   </trkpt>
   <trkpt lat="50.751520000000006" lon="3.2265800000000002">
    <ele>29.540000000000003</ele>
   </trkpt>
   <trkpt lat="50.751910000448085" lon="3.2262150031548105">
    <ele>30.45</ele>
   </trkpt>
   <trkpt lat="50.752300000000005" lon="3.2258500000000003">
    <ele>31.39</ele>
   </trkpt>
   <trkpt lat="50.75293000102746" lon="3.225350006762561">
    <ele>32.89</ele>
   </trkpt>
   <trkpt lat="50.75356000000001" lon="3.2248500000000004">
    <ele>34.84</ele>
   </trkpt>
   <trkpt lat="50.75367000000001" lon="3.22474">
    <ele>34.84</ele>
   </trkpt>
   <trkpt lat="50.753780000000006" lon="3.2245600000000003">
    <ele>35.550000000000004</ele>
   </trkpt>
  </trkseg>
 </trk>
</gpx>
